{"type": "FeatureCollection", "features": [ {"type": "Feature", "properties": {"norad_id": 39778, "name": "IRIDIUM 33 DEB", "group": "iridium-33-debris", "lat": -5.607918585320326, "lon": 42.34643578521808, "alt_km": 711.3291746968662, "timestamp": "2025-12-13T22:39:30.096372+00:00", "meta": {"OBJECT_NAME": "IRIDIUM 33 DEB", "OBJECT_ID": "1997-051AAK", "EPOCH": "2025-12-12T10:21:13.925952", "MEAN_MOTION": 14.54260993, "ECCENTRICITY": 0.00080257, "INCLINATION": 86.3781, "RA_OF_ASC_NODE": 43.3592, "ARG_OF_PERICENTER": 42.6876, "MEAN_ANOMALY": 317.4953, "EPHEMERIS_TYPE": 0, "CLASSIFICATION_TYPE": "U", "NORAD_CAT_ID": 39778, "ELEMENT_SET_NO": 999, "REV_AT_EPOCH": 60688, "BSTAR": 0.001394589, "MEAN_MOTION_DOT": 5.932e-05, "MEAN_MOTION_DDOT": 0}, "tle": {"line1": "1 39778U 97051AAK 25346.43141118  .00005932  00000+0  13946-2 0  9992", "line2": "2 39778  86.3781  43.3592 0008025  42.6876 317.4953 14.54260993606886"}}, "geometry": {"type": "Point", "coordinates": [42.34643578521808, -5.607918585320326]}}, {"type": "Feature", "properties": {"norad_id": 39781, "name": "IRIDIUM 33 DEB", "group": "iridium-33-debris", "lat": -33.5821088841944, "lon": -104.93383262668821, "alt_km": 758.2788431435556, "timestamp": "2025-12-13T22:39:30.096382+00:00", "meta": {"OBJECT_NAME": "IRIDIUM 33 DEB", "OBJECT_ID": "1997-051AAN", "EPOCH": "2025-12-12T01:28:05.155392", "MEAN_MOTION": 14.2060455, "ECCENTRICITY": 0.01772895, "INCLINATION": 86.3691, "RA_OF_ASC_NODE": 258.2585, "ARG_OF_PERICENTER": 275.4265, "MEAN_ANOMALY": 145.4796, "EPHEMERIS_TYPE": 0, "CLASSIFICATION_TYPE": "U", "NORAD_CAT_ID": 39781, "ELEMENT_SET_NO": 999, "REV_AT_EPOCH": 8097, "BSTAR": 0.0073586238, "MEAN_MOTION_DOT": 0.00018593, "MEAN_MOTION_DDOT": 0}, "tle": {"line1": "1 39781U 97051AAN 25346.06117078  .00018593  00000+0  73586-2 0  9996", "line2": "2 39781  86.3691 258.2585 0177289 275.4265 145.4796 14.20604550 80970"}}, "geometry": {"type": "Point", "coordinates": [-104.93383262668821, -33.5821088841944]}}, {"type": "Feature", "properties": {"norad_id": 39783, "name": "IRIDIUM 33 DEB", "group": "iridium-33-debris", "lat": 36.23475394177631, "lon": -102.50777670689453, "alt_km": 458.82522335475915, "timestamp": "2025-12-13T22:39:30.096393+00:00", "meta": {"OBJECT_NAME": "IRIDIUM 33 DEB", "OBJECT_ID": "1997-051AAQ", "EPOCH": "2025-11-16T15:05:40.850592", "MEAN_MOTION": 15.19327111, "ECCENTRICITY": 0.00057535, "INCLINATION": 86.1306, "RA_OF_ASC_NODE": 268.8004, "ARG_OF_PERICENTER": 179.9151, "MEAN_ANOMALY": 1.8316, "EPHEMERIS_TYPE": 0, "CLASSIFICATION_TYPE": "U", "NORAD_CAT_ID": 39783, "ELEMENT_SET_NO": 999, "REV_AT_EPOCH": 60401, "BSTAR": 0.010398125, "MEAN_MOTION_DOT": 0.00226179, "MEAN_MOTION_DDOT": 0}, "tle": {"line1": "1 39783U 97051AAQ 25320.62894503  .00226179  00000+0  10398-1 0  9999", "line2": "2 39783  86.1306 268.8004 0005753 179.9151   1.8316 15.19327111604018"}}, "geometry": {"type": "Point", "coordinates": [-102.50777670689453, 36.23475394177631]}}, {"type": "Feature", "properties": {"norad_id": 40996, "name": "IRIDIUM 33 DEB", "group": "iridium-33-debris", "lat": 77.80196307536931, "lon": 163.6834769403711, "alt_km": 564.8469749735768, "timestamp": "2025-12-13T22:39:30.096403+00:00", "meta": {"OBJECT_NAME": "IRIDIUM 33 DEB", "OBJECT_ID": "1997-051ABJ", "EPOCH": "2025-12-12T07:45:11.152800", "MEAN_MOTION": 14.96217536, "ECCENTRICITY": 0.00119593, "INCLINATION": 86.3523, "RA_OF_ASC_NODE": 1.6046, "ARG_OF_PERICENTER": 64.2736, "MEAN_ANOMALY": 311.0223, "EPHEMERIS_TYPE": 0, "CLASSIFICATION_TYPE": "U", "NORAD_CAT_ID": 40996, "ELEMENT_SET_NO": 999, "REV_AT_EPOCH": 62482, "BSTAR": 0.0043106688, "MEAN_MOTION_DOT": 0.00048971, "MEAN_MOTION_DDOT": 0}, "tle": {"line1": "1 40996U 97051ABJ 25346.32304575  .00048971  00000+0  43107-2 0  9994", "line2": "2 40996  86.3523   1.6046 0011959  64.2736 311.0223 14.96217536624825"}}, "geometry": {"type": "Point", "coordinates": [163.6834769403711, 77.80196307536931]}}, {"type": "Feature", "properties": {"norad_id": 40998, "name": "IRIDIUM 33 DEB", "group": "iridium-33-debris", "lat": -25.664429404004842, "lon": 51.399728627343755, "alt_km": 749.0713075474305, "timestamp": "2025-12-13T22:39:30.096413+00:00", "meta": {"OBJECT_NAME": "IRIDIUM 33 DEB", "OBJECT_ID": "1997-051ABL", "EPOCH": "2025-12-09T22:57:49.203072", "MEAN_MOTION": 14.45082428, "ECCENTRICITY": 0.00095723, "INCLINATION": 86.3826, "RA_OF_ASC_NODE": 54.8444, "ARG_OF_PERICENTER": 91.708, "MEAN_ANOMALY": 32.8835, "EPHEMERIS_TYPE": 0, "CLASSIFICATION_TYPE": "U", "NORAD_CAT_ID": 40998, "ELEMENT_SET_NO": 999, "REV_AT_EPOCH": 6641, "BSTAR": 0.00070534207, "MEAN_MOTION_DOT": 2.485e-05, "MEAN_MOTION_DDOT": 0}, "tle": {"line1": "1 40998U 97051ABL 25343.95681948  .00002485  00000+0  70534-3 0  9999", "line2": "2 40998  86.3826  54.8444 0009572  91.7080  32.8835 14.45082428 66416"}}, "geometry": {"type": "Point", "coordinates": [51.399728627343755, -25.664429404004842]}}, {"type": "Feature", "properties": {"norad_id": 46435, "name": "IRIDIUM 33 DEB", "group": "iridium-33-debris", "lat": 35.593732387658875, "lon": 10.764699164373996, "alt_km": 871.8003189055271, "timestamp": "2025-12-13T22:39:30.096424+00:00", "meta": {"OBJECT_NAME": "IRIDIUM 33 DEB", "OBJECT_ID": "1997-051ABN", "EPOCH": "2025-12-12T20:52:33.908160", "MEAN_MOTION": 14.32319865, "ECCENTRICITY": 0.02085953, "INCLINATION": 86.2838, "RA_OF_ASC_NODE": 193.8931, "ARG_OF_PERICENTER": 275.9535, "MEAN_ANOMALY": 94.2215, "EPHEMERIS_TYPE": 0, "CLASSIFICATION_TYPE": "U", "NORAD_CAT_ID": 46435, "ELEMENT_SET_NO": 999, "REV_AT_EPOCH": 7918, "BSTAR": 0.012063551, "MEAN_MOTION_DOT": 0.00041649, "MEAN_MOTION_DDOT": 0}, "tle": {"line1": "1 46435U 97051ABN 25346.86983690  .00041649  00000+0  12064-1 0  9990", "line2": "2 46435  86.2838 193.8931 0208595 275.9535  94.2215 14.32319865 79188"}}, "geometry": {"type": "Point", "coordinates": [10.764699164373996, 35.593732387658875]}}, {"type": "Feature", "properties": {"norad_id": 46734, "name": "IRIDIUM 33 DEB", "group": "iridium-33-debris", "lat": 19.71818089391073, "lon": 3.677353234321709, "alt_km": 734.0783496418062, "timestamp": "2025-12-13T22:39:30.096434+00:00", "meta": {"OBJECT_NAME": "IRIDIUM 33 DEB", "OBJECT_ID": "1997-051ABR", "EPOCH": "2025-12-13T07:39:56.344032", "MEAN_MOTION": 14.41895054, "ECCENTRICITY": 0.00384162, "INCLINATION": 86.2642, "RA_OF_ASC_NODE": 2.6096, "ARG_OF_PERICENTER": 333.7595, "MEAN_ANOMALY": 45.1508, "EPHEMERIS_TYPE": 0, "CLASSIFICATION_TYPE": "U", "NORAD_CAT_ID": 46734, "ELEMENT_SET_NO": 999, "REV_AT_EPOCH": 63019, "BSTAR": 0.001605315, "MEAN_MOTION_DOT": 5.319e-05, "MEAN_MOTION_DDOT": 0}, "tle": {"line1": "1 46734U 97051ABR 25347.31940213  .00005319  00000+0  16053-2 0  9994", "line2": "2 46734  86.2642   2.6096 0038416 333.7595  45.1508 14.41895054630197"}}, "geometry": {"type": "Point", "coordinates": [3.677353234321709, 19.71818089391073]}}, {"type": "Feature", "properties": {"norad_id": 46965, "name": "IRIDIUM 33 DEB", "group": "iridium-33-debris", "lat": -56.35394118727635, "lon": 165.68968011002403, "alt_km": 700.0147325819016, "timestamp": "2025-12-13T22:39:30.096444+00:00", "meta": {"OBJECT_NAME": "IRIDIUM 33 DEB", "OBJECT_ID": "1997-051ABX", "EPOCH": "2025-12-09T11:22:29.536608", "MEAN_MOTION": 14.60256222, "ECCENTRICITY": 0.0018504, "INCLINATION": 86.3353, "RA_OF_ASC_NODE": 342.1454, "ARG_OF_PERICENTER": 344.7825, "MEAN_ANOMALY": 167.4281, "EPHEMERIS_TYPE": 0, "CLASSIFICATION_TYPE": "U", "NORAD_CAT_ID": 46965, "ELEMENT_SET_NO": 999, "REV_AT_EPOCH": 62220, "BSTAR": 0.0013057124, "MEAN_MOTION_DOT": 6.336e-05, "MEAN_MOTION_DDOT": 0}, "tle": {"line1": "1 46965U 97051ABX 25343.47395297  .00006336  00000+0  13057-2 0  9990", "line2": "2 46965  86.3353 342.1454 0018504 344.7825 167.4281 14.60256222622205"}}, "geometry": {"type": "Point", "coordinates": [165.68968011002403, -56.35394118727635]}}, {"type": "Feature", "properties": {"norad_id": 46971, "name": "IRIDIUM 33 DEB", "group": "iridium-33-debris", "lat": 59.66679790035245, "lon": 146.2655198321724, "alt_km": 569.8600254404355, "timestamp": "2025-12-13T22:39:30.096455+00:00", "meta": {"OBJECT_NAME": "IRIDIUM 33 DEB", "OBJECT_ID": "1997-051ACD", "EPOCH": "2025-12-09T17:53:50.411040", "MEAN_MOTION": 14.9771662, "ECCENTRICITY": 0.00041979, "INCLINATION": 86.3387, "RA_OF_ASC_NODE": 334.5212, "ARG_OF_PERICENTER": 335.9126, "MEAN_ANOMALY": 199.6728, "EPHEMERIS_TYPE": 0, "CLASSIFICATION_TYPE": "U", "NORAD_CAT_ID": 46971, "ELEMENT_SET_NO": 999, "REV_AT_EPOCH": 64185, "BSTAR": 0.0038941985, "MEAN_MOTION_DOT": 0.00045901, "MEAN_MOTION_DDOT": 0}, "tle": {"line1": "1 46971U 97051ACD 25343.74572235  .00045901  00000+0  38942-2 0  9997", "line2": "2 46971  86.3387 334.5212 0004197 335.9126 199.6728 14.97716620641853"}}, "geometry": {"type": "Point", "coordinates": [146.2655198321724, 59.66679790035245]}}, {"type": "Feature", "properties": {"norad_id": 46974, "name": "IRIDIUM 33 DEB", "group": "iridium-33-debris", "lat": -64.0716609230336, "lon": -67.59841687554857, "alt_km": 717.8678330234388, "timestamp": "2025-12-13T22:39:30.096466+00:00", "meta": {"OBJECT_NAME": "IRIDIUM 33 DEB", "OBJECT_ID": "1997-051ACG", "EPOCH": "2025-12-13T01:34:59.316384", "MEAN_MOTION": 14.44392499, "ECCENTRICITY": 0.00956741, "INCLINATION": 86.2983, "RA_OF_ASC_NODE": 105.1329, "ARG_OF_PERICENTER": 185.9471, "MEAN_ANOMALY": 174.0604, "EPHEMERIS_TYPE": 0, "CLASSIFICATION_TYPE": "U", "NORAD_CAT_ID": 46974, "ELEMENT_SET_NO": 999, "REV_AT_EPOCH": 57513, "BSTAR": 0.0074669983, "MEAN_MOTION_DOT": 0.00027304, "MEAN_MOTION_DDOT": 0}, "tle": {"line1": "1 46974U 97051ACG 25347.06596431  .00027304  00000+0  74670-2 0  9998", "line2": "2 46974  86.2983 105.1329 0095674 185.9471 174.0604 14.44392499575137"}}, "geometry": {"type": "Point", "coordinates": [-67.59841687554857, -64.0716609230336]}}]}